NORAD_CAT_ID,OBJECT_NAME,OBJECT_TYPE,EPOCH,MEAN_MOTION,ECCENTRICITY,INCLINATION,RA_OF_ASC_NODE,ARG_OF_PERICENTER,MEAN_ANOMALY,BSTAR,MEAN_MOTION_DOT,MEAN_MOTION_DDOT,TLE_LINE0,TLE_LINE1,TLE_LINE2,SEMIMAJOR_AXIS,PERIOD,APOGEE,PERIGEE,DECAYED
50827.0,STARLINK-3329,PAYLOAD,2022-04-09 14:00:01,15.14895055,0.0001633,53.2171,109.2156,42.0568,355.2554,-0.041264,-0.0072378,0.0,0 STARLINK-3329,1 50827U 22001AA  22099.58334491 -.00723780  00000-0 -41264-1 0  9993,2 50827  53.2171 109.2156 0001633  42.0568 355.2554 15.14895055  3640,6899.434,95.056,522.4259999999998,520.173,0.0
50827.0,STARLINK-3329,PAYLOAD,2022-04-09 22:00:00,15.14382437,0.0001709,53.2173,107.7022,38.9613,16.9138,-0.041642,-0.00720125,0.0,0 STARLINK-3329,1 50827U 22001AA  22099.91667824 -.00720125  00000-0 -41642-1 0  9999,2 50827  53.2173 107.7022 0001709  38.9613  16.9138 15.14382437 15823,6900.991,95.088,524.035,521.677,0.0
50827.0,STARLINK-3329,PAYLOAD,2022-04-10 14:00:01,15.13363955,0.0001807,53.2171,104.6837,39.0191,52.1375,-0.042964,-0.00721781,0.0,0 STARLINK-3329,1 50827U 22001AA  22100.58334491 -.00721781  00000-0 -42964-1 0  9993,2 50827  53.2171 104.6837 0001807  39.0191  52.1375 15.13363955  3659,6904.087,95.152,527.1990000000002,524.7040000000002,0.0
50827.0,STARLINK-3329,PAYLOAD,2022-04-10 20:00:01,15.129795199999998,0.0001662,53.2174,103.5511,39.8568,333.9007,-0.043244,-0.00718853,0.0,0 STARLINK-3329,1 50827U 22001AA  22100.83334491 -.00718853  00000-0 -43244-1 0  9999,2 50827  53.2174 103.5511 0001662  39.8568 333.9007 15.12979520 15963,6905.255999999999,95.176,528.269,525.974,0.0
50827.0,STARLINK-3329,PAYLOAD,2022-04-10 22:00:00,15.12853645,0.0001815,53.2174,103.1739,39.4051,68.4752,-0.0436,-0.00721998,0.0,0 STARLINK-3329,1 50827U 22001AA  22100.91667824 -.00721998  00000-0 -43600-1 0  9997,2 50827  53.2174 103.1739 0001815  39.4051  68.4752 15.12853645  3653,6905.639,95.184,528.758,526.251,0.0
50827.0,STARLINK-3329,PAYLOAD,2022-04-11 14:00:01,15.11833622,0.0001733,53.2172,100.1624,45.5461,93.9396,-0.044803,-0.00721052,0.0,0 STARLINK-3329,1 50827U 22001AA  22101.58334491 -.00721052  00000-0 -44803-1 0  9999,2 50827  53.2172 100.1624 0001733  45.5461  93.9396 15.11833622  3641,6908.745,95.249,531.807,529.413,0.0
50827.0,STARLINK-3329,PAYLOAD,2022-04-11 22:00:00,15.11324644,0.0001914,53.2174,98.6564,39.5233,114.8471,-0.045606,-0.0072346,0.0,0 STARLINK-3329,1 50827U 22001AA  22101.91667824 -.00723460  00000-0 -45606-1 0  9992,2 50827  53.2174  98.6564 0001914  39.5233 114.8471 15.11324644 16121,6910.295999999999,95.281,533.484,530.839,0.0
50827.0,STARLINK-3329,PAYLOAD,2022-04-12 14:00:01,15.10303812,0.0001803,53.2172,95.6518,45.2755,137.0241,-0.046775,-0.00721369,0.0,0 STARLINK-3329,1 50827U 22001AA  22102.58334491 -.00721369  00000-0 -46775-1 0  9991,2 50827  53.2172  95.6518 0001803  45.2755 137.0241 15.10303812  3654,6913.41,95.345,536.521,534.028,0.0
50827.0,STARLINK-3329,PAYLOAD,2022-04-12 22:00:00,15.09683865,0.0002118,53.217,94.1509,41.7222,153.6804,-0.037136,-0.00566155,0.0,0 STARLINK-3329,1 50827U 22001AA  22102.91667824 -.00566155  00000-0 -37136-1 0  9998,2 50827  53.2170  94.1509 0002118  41.7222 153.6804 15.09683865  3607,6915.302,95.384,538.632,535.703,0.0
50827.0,STARLINK-3329,PAYLOAD,2022-04-13 04:00:00,15.09378511,0.0002006,53.2175,93.0265,35.6626,79.0712,-0.042495,-0.00643851,0.0,0 STARLINK-3329,1 50827U 22001AA  22103.16667824 -.00643851  00000-0 -42495-1 0  9999,2 50827  53.2175  93.0265 0002006  35.6626  79.0712 15.09378511 16315,6916.235,95.404,539.487,536.712,0.0
50827.0,STARLINK-3329,PAYLOAD,2022-04-13 14:00:03,15.08837354,0.0001692,53.2173,91.1542,50.2297,169.4999,-6.18e-05,-1.271e-05,0.0,0 STARLINK-3329,1 50827U 22001AA  22103.58336806 -.00001271  00000-0 -61800-4 0  9996,2 50827  53.2173  91.1542 0001692  50.2297 169.4999 15.08837354 16378,6917.888000000001,95.438,540.924,538.5830000000002,0.0
50827.0,STARLINK-3329,PAYLOAD,2022-04-13 22:00:00,15.08850598,0.0001624,53.216,89.6626,43.799,187.5135,0.00090527,0.00014153,0.0,0 STARLINK-3329,1 50827U 22001AA  22103.91667824  .00014153  00000-0  90527-3 0  9998,2 50827  53.2160  89.6626 0001624  43.7990 187.5135 15.08850598 16425,6917.848000000001,95.437,540.836,538.59,0.0
50827.0,STARLINK-3329,PAYLOAD,2022-04-14 14:00:01,15.08837838,0.0001801,53.2155,86.6732,38.2591,216.2756,-0.0052486,-0.00082856,0.0,0 STARLINK-3329,1 50827U 22001AA  22104.58334491 -.00082856  00000-0 -52486-2 0  9991,2 50827  53.2155  86.6732 0001801  38.2591 216.2756 15.08837838 16530,6917.887,95.438,540.998,538.506,0.0
50827.0,STARLINK-3329,PAYLOAD,2022-04-14 22:00:00,15.08755771,0.0001708,53.2157,85.1755,44.1396,221.9594,0.0043836,0.00070009,0.0,0 STARLINK-3329,1 50827U 22001AA  22104.91667824  .00070009  00000-0  43836-2 0  9991,2 50827  53.2157  85.1755 0001708  44.1396 221.9594 15.08755771  3631,6918.138000000001,95.443,541.184,538.821,0.0
50827.0,STARLINK-3329,PAYLOAD,2022-04-15 06:00:00,15.08798769,0.0001925,53.2159,83.681,40.1025,237.5242,0.0040033,0.00063931,0.0,0 STARLINK-3329,1 50827U 22001AA  22105.25001157  .00063931  00000-0  40033-2 0  9992,2 50827  53.2159  83.6810 0001925  40.1025 237.5242 15.08798769 16635,6918.005999999999,95.44,541.203,538.54,0.0
50827.0,STARLINK-3329,PAYLOAD,2022-04-15 14:00:01,15.0887723,0.0001822,53.2159,82.1838,38.4244,250.782,-0.0014138,-0.00022741,0.0,0 STARLINK-3329,1 50827U 22001AA  22105.58334491 -.00022741  00000-0 -14138-2 0  9991,2 50827  53.2159  82.1838 0001822  38.4244 250.7820 15.08877230  3634,6917.767,95.435,540.8919999999998,538.371,0.0
50827.0,STARLINK-3329,PAYLOAD,2022-04-15 22:00:00,15.08860118,0.0001739,53.2163,80.6861,44.1089,256.7168,0.0016721,0.00026438,0.0,0 STARLINK-3329,1 50827U 22001AA  22105.91667824  .00026438  00000-0  16721-2 0  9992,2 50827  53.2163  80.6861 0001739  44.1089 256.7168 15.08860118  3612,6917.819,95.436,540.887,538.481,0.0
50827.0,STARLINK-3329,PAYLOAD,2022-04-16 06:00:00,15.08870148,0.0001969,53.2166,79.1915,39.3229,273.1335,-0.0035436,-0.00056292,0.0,0 STARLINK-3329,1 50827U 22001AA  22106.25001157 -.00056292  00000-0 -35436-2 0  9998,2 50827  53.2166  79.1915 0001969  39.3229 273.1335 15.08870148 16780,6917.788000000001,95.436,541.015,538.2909999999998,0.0
50827.0,STARLINK-3329,PAYLOAD,2022-04-16 14:00:01,15.08841284,0.0001945,53.2166,77.6942,40.5509,283.5096,-0.0025204,-0.00040179,0.0,0 STARLINK-3329,1 50827U 22001AA  22106.58334491 -.00040179  00000-0 -25204-2 0  9993,2 50827  53.2166  77.6942 0001945  40.5509 283.5096 15.08841284  3630,6917.876,95.437,541.087,538.396,0.0
50827.0,STARLINK-3329,PAYLOAD,2022-04-16 22:00:01,15.08817598,0.0001877,53.2173,76.1968,46.0479,289.6491,0.0015051,0.00023732,0.0,0 STARLINK-3329,1 50827U 22001AA  22106.91668981  .00023732  00000-0  15051-2 0  9997,2 50827  53.2173  76.1968 0001877  46.0479 289.6491 15.08817598 16889,6917.949000000001,95.439,541.112,538.515,0.0
50827.0,STARLINK-3329,PAYLOAD,2022-04-17 14:00:01,15.08852217,0.0002009,53.2175,73.2051,42.9156,315.8799,-0.0017092,-0.00027397,0.0,0 STARLINK-3329,1 50827U 22001AA  22107.58334491 -.00027397  00000-0 -17092-2 0  9997,2 50827  53.2175  73.2051 0002009  42.9156 315.8799 15.08852217  3636,6917.843000000003,95.437,541.0980000000002,538.318,0.0
50827.0,STARLINK-3329,PAYLOAD,2022-04-17 22:00:00,15.08846769,0.0001929,53.2181,71.7081,48.1298,322.2646,0.0013571,0.0002138,0.0,0 STARLINK-3329,1 50827U 22001AA  22107.91667824  .00021380  00000-0  13571-2 0  9995,2 50827  53.2181  71.7081 0001929  48.1298 322.2646 15.08846769  3621,6917.86,95.437,541.059,538.39,0.0
50827.0,STARLINK-3329,PAYLOAD,2022-04-18 08:00:01,15.08843501,0.0002098,53.2181,69.8396,41.5806,73.3327,0.0014728,0.00023232,0.0,0 STARLINK-3329,1 50827U 22001AA  22108.33334491  .00023232  00000-0  14728-2 0  9996,2 50827  53.2181  69.8396 0002098  41.5806  73.3327 15.08843501 17095,6917.87,95.437,541.186,538.283,0.0
50827.0,STARLINK-3329,PAYLOAD,2022-04-18 14:00:01,15.08864169,0.000195,53.2181,68.71600000000001,43.9923,349.6292,-0.0027956,-0.00044536,0.0,0 STARLINK-3329,1 50827U 22001AA  22108.58334491 -.00044536  00000-0 -27956-2 0  9992,2 50827  53.2181  68.7160 0001950  43.9923 349.6292 15.08864169  3621,6917.807,95.436,541.02,538.323,0.0
50827.0,STARLINK-3329,PAYLOAD,2022-04-18 20:00:01,15.08830243,0.0001827,53.2184,67.593,47.1255,265.2057,0.0028093,0.00044694,0.0,0 STARLINK-3329,1 50827U 22001AA  22108.83334491  .00044694  00000-0  28093-2 0  9996,2 50827  53.2184  67.5930 0001827  47.1255 265.2057 15.08830243 17176,6917.91,95.438,541.039,538.511,0.0
50827.0,STARLINK-3329,PAYLOAD,2022-04-18 22:00:00,15.08855857,0.0001832,53.2185,67.2194,47.1416,358.0814,0.00014154,1.966e-05,0.0,0 STARLINK-3329,1 50827U 22001AA  22108.91667824  .00001966  00000-0  14154-3 0  9993,2 50827  53.2185  67.2194 0001832  47.1416 358.0814 15.08855857  3626,6917.831999999999,95.437,540.964,538.43,0.0
50827.0,STARLINK-3329,PAYLOAD,2022-04-19 06:00:00,15.08825711,0.0001986,53.2185,65.7249,41.6241,15.2135,0.00016692,2.368e-05,0.0,0 STARLINK-3329,1 50827U 22001AA  22109.25001157  .00002368  00000-0  16692-3 0  9998,2 50827  53.2185  65.7249 0001986  41.6241  15.2135 15.08825711 17231,6917.924,95.438,541.163,538.415,0.0
50827.0,STARLINK-3329,PAYLOAD,2022-04-19 14:00:01,15.08848269,0.0001844,53.2183,64.2273,43.7378,24.6884,-0.0012291,-0.00019801,0.0,0 STARLINK-3329,1 50827U 22001AA  22109.58334491 -.00019801  00000-0 -12291-2 0  9996,2 50827  53.2183  64.2273 0001844  43.7378  24.6884 15.08848269  3623,6917.855,95.437,540.996,538.444,0.0
50827.0,STARLINK-3329,PAYLOAD,2022-04-20 14:00:01,15.08838224,0.000191,53.218,59.7387,48.6601,54.5291,-0.00032439,-5.447e-05,0.0,0 STARLINK-3329,1 50827U 22001AA  22110.58334491 -.00005447  00000-0 -32439-3 0  9996,2 50827  53.2180  59.7387 0001910  48.6601  54.5291 15.08838224 17430,6917.886,95.438,541.072,538.43,0.0
